[{"OBJECT_NAME":"STARLINK-35605","OBJECT_ID":"2025-240E","EPOCH":"2026-03-09T23:37:04.095552","MEAN_MOTION":15.30213347,"ECCENTRICITY":0.00015837,"INCLINATION":53.1602,"RA_OF_ASC_NODE":61.4355,"ARG_OF_PERICENTER":102.5589,"MEAN_ANOMALY":257.5589,"EPHEMERIS_TYPE":0,"CLASSIFICATION_TYPE":"U","NORAD_CAT_ID":66150,"ELEMENT_SET_NO":999,"REV_AT_EPOCH":2203,"BSTAR":0.0011794959,"MEAN_MOTION_DOT":0.00034752,"MEAN_MOTION_DDOT":0},{"OBJECT_NAME":"JIELONG-3 R\/B","OBJECT_ID":"2026-027H","EPOCH":"2026-03-09T22:52:28.951104","MEAN_MOTION":15.76303399,"ECCENTRICITY":0.02123753,"INCLINATION":97.5118,"RA_OF_ASC_NODE":200.0017,"ARG_OF_PERICENTER":243.897,"MEAN_ANOMALY":114.0305,"EPHEMERIS_TYPE":0,"CLASSIFICATION_TYPE":"U","NORAD_CAT_ID":67753,"ELEMENT_SET_NO":999,"REV_AT_EPOCH":402,"BSTAR":0.00072450109,"MEAN_MOTION_DOT":0.00557901,"MEAN_MOTION_DDOT":2.368277e-6}]
